CCSDS_OMM_VERS = 2.0
CREATION_DATE  = 
ORIGINATOR     = 

OBJECT_NAME    = COSMOS 1892
OBJECT_ID      = 1987-088A
CENTER_NAME    = EARTH
REF_FRAME      = TEME
TIME_SYSTEM    = UTC
MEAN_ELEMENT_THEORY = SGP/SGP4

EPOCH          = 2025-11-08T09:08:46.271040
MEAN_MOTION    = 15.95933653
ECCENTRICITY   = .0005863
INCLINATION    = 82.4695
RA_OF_ASC_NODE = 82.4766
ARG_OF_PERICENTER = 291.6866
MEAN_ANOMALY   = 68.3785

EPHEMERIS_TYPE = 0
CLASSIFICATION_TYPE = U
NORAD_CAT_ID   = 18421
ELEMENT_SET_NO = 999
REV_AT_EPOCH   = 8581
BSTAR          = .82716E-3
MEAN_MOTION_DOT = .335497E-2
MEAN_MOTION_DDOT = .43175E-4

CCSDS_OMM_VERS = 2.0
CREATION_DATE  = 
ORIGINATOR     = 

OBJECT_NAME    = SL-14 R/B
OBJECT_ID      = 1988-001B
CENTER_NAME    = EARTH
REF_FRAME      = TEME
TIME_SYSTEM    = UTC
MEAN_ELEMENT_THEORY = SGP/SGP4

EPOCH          = 2025-11-08T11:46:13.230624
MEAN_MOTION    = 14.85366853
ECCENTRICITY   = .0016495
INCLINATION    = 82.5106
RA_OF_ASC_NODE = 309.3680
ARG_OF_PERICENTER = 280.2270
MEAN_ANOMALY   = 79.7086

EPHEMERIS_TYPE = 0
CLASSIFICATION_TYPE = U
NORAD_CAT_ID   = 18749
ELEMENT_SET_NO = 999
REV_AT_EPOCH   = 2403
BSTAR          = .87789E-4
MEAN_MOTION_DOT = .78E-5
MEAN_MOTION_DDOT = 0

CCSDS_OMM_VERS = 2.0
CREATION_DATE  = 
ORIGINATOR     = 

OBJECT_NAME    = COSMOS 1933
OBJECT_ID      = 1988-020A
CENTER_NAME    = EARTH
REF_FRAME      = TEME
TIME_SYSTEM    = UTC
MEAN_ELEMENT_THEORY = SGP/SGP4

EPOCH          = 2025-11-08T06:04:16.199328
MEAN_MOTION    = 15.16702007
ECCENTRICITY   = .00028739
INCLINATION    = 82.5154
RA_OF_ASC_NODE = 10.9418
ARG_OF_PERICENTER = 254.0633
MEAN_ANOMALY   = 106.0284

EPHEMERIS_TYPE = 0
CLASSIFICATION_TYPE = U
NORAD_CAT_ID   = 18958
ELEMENT_SET_NO = 999
REV_AT_EPOCH   = 3181
BSTAR          = .32920291E-3
MEAN_MOTION_DOT = .6478E-4
MEAN_MOTION_DDOT = 0

CCSDS_OMM_VERS = 2.0
CREATION_DATE  = 
ORIGINATOR     = 

OBJECT_NAME    = SL-3 R/B
OBJECT_ID      = 1988-032B
CENTER_NAME    = EARTH
REF_FRAME      = TEME
TIME_SYSTEM    = UTC
MEAN_ELEMENT_THEORY = SGP/SGP4

EPOCH          = 2025-11-08T11:07:06.013056
MEAN_MOTION    = 15.18206191
ECCENTRICITY   = .0025153
INCLINATION    = 97.5053
RA_OF_ASC_NODE = 291.4396
ARG_OF_PERICENTER = 298.8739
MEAN_ANOMALY   = 60.9971

EPHEMERIS_TYPE = 0
CLASSIFICATION_TYPE = U
NORAD_CAT_ID   = 19046
ELEMENT_SET_NO = 999
REV_AT_EPOCH   = 3370
BSTAR          = .36666E-3
MEAN_MOTION_DOT = .7493E-4
MEAN_MOTION_DDOT = 0

CCSDS_OMM_VERS = 2.0
CREATION_DATE  = 
ORIGINATOR     = 

OBJECT_NAME    = SL-16 R/B
OBJECT_ID      = 1988-039B
CENTER_NAME    = EARTH
REF_FRAME      = TEME
TIME_SYSTEM    = UTC
MEAN_ELEMENT_THEORY = SGP/SGP4

EPOCH          = 2025-11-08T12:02:09.333024
MEAN_MOTION    = 14.19587696
ECCENTRICITY   = .0021377
INCLINATION    = 71.0146
RA_OF_ASC_NODE = 324.7943
ARG_OF_PERICENTER = 172.2621
MEAN_ANOMALY   = 187.8838

EPHEMERIS_TYPE = 0
CLASSIFICATION_TYPE = U
NORAD_CAT_ID   = 19120
ELEMENT_SET_NO = 999
REV_AT_EPOCH   = 94118
BSTAR          = .11723E-3
MEAN_MOTION_DOT = .2E-5
MEAN_MOTION_DDOT = 0

CCSDS_OMM_VERS = 2.0
CREATION_DATE  = 
ORIGINATOR     = 

OBJECT_NAME    = COSMOS 1953
OBJECT_ID      = 1988-050A
CENTER_NAME    = EARTH
REF_FRAME      = TEME
TIME_SYSTEM    = UTC
MEAN_ELEMENT_THEORY = SGP/SGP4

EPOCH          = 2025-11-08T08:36:40.220640
MEAN_MOTION    = 15.26367120
ECCENTRICITY   = .0011629
INCLINATION    = 82.5070
RA_OF_ASC_NODE = 280.0667
ARG_OF_PERICENTER = 180.5064
MEAN_ANOMALY   = 179.6165

EPHEMERIS_TYPE = 0
CLASSIFICATION_TYPE = U
NORAD_CAT_ID   = 19210
ELEMENT_SET_NO = 999
REV_AT_EPOCH   = 1926
BSTAR          = .2725E-3
MEAN_MOTION_DOT = .7128E-4
MEAN_MOTION_DDOT = 0

CCSDS_OMM_VERS = 2.0
CREATION_DATE  = 
ORIGINATOR     = 

OBJECT_NAME    = SL-8 R/B
OBJECT_ID      = 1988-053B
CENTER_NAME    = EARTH
REF_FRAME      = TEME
TIME_SYSTEM    = UTC
MEAN_ELEMENT_THEORY = SGP/SGP4

EPOCH          = 2025-11-08T11:31:27.966720
MEAN_MOTION    = 14.38827777
ECCENTRICITY   = .0020227
INCLINATION    = 74.0476
RA_OF_ASC_NODE = 335.8641
ARG_OF_PERICENTER = 190.5211
MEAN_ANOMALY   = 276.4288

EPHEMERIS_TYPE = 0
CLASSIFICATION_TYPE = U
NORAD_CAT_ID   = 19257
ELEMENT_SET_NO = 999
REV_AT_EPOCH   = 95916
BSTAR          = .14617E-3
MEAN_MOTION_DOT = .424E-5
MEAN_MOTION_DDOT = 0

CCSDS_OMM_VERS = 2.0
CREATION_DATE  = 
ORIGINATOR     = 

OBJECT_NAME    = COSMOS 1975
OBJECT_ID      = 1988-093A
CENTER_NAME    = EARTH
REF_FRAME      = TEME
TIME_SYSTEM    = UTC
MEAN_ELEMENT_THEORY = SGP/SGP4

EPOCH          = 2025-11-08T06:59:50.097984
MEAN_MOTION    = 15.25655944
ECCENTRICITY   = .00095331
INCLINATION    = 82.5216
RA_OF_ASC_NODE = 239.2890
ARG_OF_PERICENTER = 233.2673
MEAN_ANOMALY   = 126.7691

EPHEMERIS_TYPE = 0
CLASSIFICATION_TYPE = U
NORAD_CAT_ID   = 19573
ELEMENT_SET_NO = 999
REV_AT_EPOCH   = 88
BSTAR          = .51452762E-3
MEAN_MOTION_DOT = .13145E-3
MEAN_MOTION_DDOT = 0

CCSDS_OMM_VERS = 2.0
CREATION_DATE  = 
ORIGINATOR     = 

OBJECT_NAME    = SL-14 R/B
OBJECT_ID      = 1988-093B
CENTER_NAME    = EARTH
REF_FRAME      = TEME
TIME_SYSTEM    = UTC
MEAN_ELEMENT_THEORY = SGP/SGP4

EPOCH          = 2025-11-08T07:24:41.501952
MEAN_MOTION    = 14.85495699
ECCENTRICITY   = .0022308
INCLINATION    = 82.5301
RA_OF_ASC_NODE = 155.9787
ARG_OF_PERICENTER = 80.4398
MEAN_ANOMALY   = 93.0169

EPHEMERIS_TYPE = 0
CLASSIFICATION_TYPE = U
NORAD_CAT_ID   = 19574
ELEMENT_SET_NO = 999
REV_AT_EPOCH   = 98301
BSTAR          = .76241032E-4
MEAN_MOTION_DOT = .685E-5
MEAN_MOTION_DDOT = 0

CCSDS_OMM_VERS = 2.0
CREATION_DATE  = 
ORIGINATOR     = 

OBJECT_NAME    = SL-16 R/B
OBJECT_ID      = 1988-102B
CENTER_NAME    = EARTH
REF_FRAME      = TEME
TIME_SYSTEM    = UTC
MEAN_ELEMENT_THEORY = SGP/SGP4

EPOCH          = 2025-11-08T11:34:53.444928
MEAN_MOTION    = 14.16130643
ECCENTRICITY   = .0015012
INCLINATION    = 71.0012
RA_OF_ASC_NODE = 46.5212
ARG_OF_PERICENTER = 204.6235
MEAN_ANOMALY   = 155.4173

EPHEMERIS_TYPE = 0
CLASSIFICATION_TYPE = U
NORAD_CAT_ID   = 19650
ELEMENT_SET_NO = 999
REV_AT_EPOCH   = 90973
BSTAR          = -.53479E-4
MEAN_MOTION_DOT = -.154E-5
MEAN_MOTION_DDOT = 0

CCSDS_OMM_VERS = 2.0
CREATION_DATE  = 
ORIGINATOR     = 

OBJECT_NAME    = INTERCOSMOS 24
OBJECT_ID      = 1989-080A
CENTER_NAME    = EARTH
REF_FRAME      = TEME
TIME_SYSTEM    = UTC
MEAN_ELEMENT_THEORY = SGP/SGP4

EPOCH          = 2025-11-08T08:11:07.617696
MEAN_MOTION    = 12.59361497
ECCENTRICITY   = .118792
INCLINATION    = 82.6081
RA_OF_ASC_NODE = 183.3202
ARG_OF_PERICENTER = 214.3236
MEAN_ANOMALY   = 137.5297

EPHEMERIS_TYPE = 0
CLASSIFICATION_TYPE = U
NORAD_CAT_ID   = 20261
ELEMENT_SET_NO = 999
REV_AT_EPOCH   = 65152
BSTAR          = .29539E-3
MEAN_MOTION_DOT = .1001E-4
MEAN_MOTION_DDOT = 0

CCSDS_OMM_VERS = 2.0
CREATION_DATE  = 
ORIGINATOR     = 

OBJECT_NAME    = SL-14 R/B
OBJECT_ID      = 1989-080C
CENTER_NAME    = EARTH
REF_FRAME      = TEME
TIME_SYSTEM    = UTC
MEAN_ELEMENT_THEORY = SGP/SGP4

EPOCH          = 2025-11-08T06:13:53.550912
MEAN_MOTION    = 12.50375745
ECCENTRICITY   = .12314043
INCLINATION    = 82.5923
RA_OF_ASC_NODE = 251.1471
ARG_OF_PERICENTER = 102.3518
MEAN_ANOMALY   = 271.7891

EPHEMERIS_TYPE = 0
CLASSIFICATION_TYPE = U
NORAD_CAT_ID   = 20262
ELEMENT_SET_NO = 999
REV_AT_EPOCH   = 64497
BSTAR          = .11967603E-3
MEAN_MOTION_DOT = .429E-5
MEAN_MOTION_DDOT = 0

