COSMOS 1892             
1 18421U 87088A   25312.38109110  .00335497  43175-4  82716-3 0  9995
2 18421  82.4695  82.4766 0005863 291.6866  68.3785 15.95933653 85813
SL-14 R/B               
1 18749U 88001B   25312.49043091  .00000780  00000+0  87789-4 0  9996
2 18749  82.5106 309.3680 0016495 280.2270  79.7086 14.85366853 24033
COSMOS 1933             
1 18958U 88020A   25312.25296527  .00006478  00000+0  32920-3 0  9993
2 18958  82.5154  10.9418 0002873 254.0633 106.0284 15.16702007 31817
SL-3 R/B                
1 19046U 88032B   25312.46326404  .00007493  00000+0  36666-3 0  9995
2 19046  97.5053 291.4396 0025153 298.8739  60.9971 15.18206191 33706
SL-16 R/B               
1 19120U 88039B   25312.50149691  .00000200  00000+0  11723-3 0  9997
2 19120  71.0146 324.7943 0021377 172.2621 187.8838 14.19587696941189
COSMOS 1953             
1 19210U 88050A   25312.35879885  .00007128  00000+0  27250-3 0  9996
2 19210  82.5070 280.0667 0011629 180.5064 179.6165 15.26367120 19265
SL-8 R/B                
1 19257U 88053B   25312.48018480  .00000424  00000+0  14617-3 0  9995
2 19257  74.0476 335.8641 0020227 190.5211 276.4288 14.38827777959167
COSMOS 1975             
1 19573U 88093A   25312.29155206  .00013145  00000+0  51453-3 0  9990
2 19573  82.5216 239.2890 0009533 233.2673 126.7691 15.25655944   884
SL-14 R/B               
1 19574U 88093B   25312.30881368  .00000685  00000+0  76241-4 0  9996
2 19574  82.5301 155.9787 0022308  80.4398  93.0169 14.85495699983015
SL-16 R/B               
1 19650U 88102B   25312.48256302 -.00000154  00000+0 -53479-4 0  9996
2 19650  71.0012  46.5212 0015012 204.6235 155.4173 14.16130643909738
INTERCOSMOS 24          
1 20261U 89080A   25312.34106039  .00001001  00000+0  29539-3 0  9997
2 20261  82.6081 183.3202 1187920 214.3236 137.5297 12.59361497651526
SL-14 R/B               
1 20262U 89080C   25312.25964758  .00000429  00000+0  11968-3 0  9998
2 20262  82.5923 251.1471 1231404 102.3518 271.7891 12.50375745644973
